{
  "type": "FeatureCollection",
  "features": [
    {
      "type": "Feature",
      "properties": {
        "norad_id": 31094,
        "name": "FENGYUN 1C DEB",
        "group": "fengyun-1c-debris",
        "lat": -40.6086369014283,
        "lon": 34.43399528567882,
        "alt_km": 967.5493769678496,
        "timestamp": "2025-12-20T11:30:28.657536+00:00",
        "meta_object_name": "FENGYUN 1C DEB",
        "meta_object_id": "1999-025BGQ",
        "meta_epoch": "2025-12-18T13:55:40.465344",
        "meta_mean_motion": 14.02070479,
        "meta_eccentricity": 0.01064794,
        "meta_inclination": 98.8566,
        "meta_ra_of_asc_node": 220.2711,
        "meta_arg_of_pericenter": 30.834,
        "meta_mean_anomaly": 329.9022,
        "meta_ephemeris_type": 0,
        "meta_classification_type": "U",
        "meta_norad_cat_id": 31094,
        "meta_element_set_no": 999,
        "meta_rev_at_epoch": 95701,
        "meta_bstar": 0.001302334,
        "meta_mean_motion_dot": 2.047e-05,
        "meta_mean_motion_ddot": 0,
        "tle_line1": "1 31094U 99025BGQ 25352.58032946  .00002047  00000+0  13023-2 0  9999",
        "tle_line2": "2 31094  98.8566 220.2711 0106479  30.8340 329.9022 14.02070479957014"
      },
      "geometry": {
        "type": "Point",
        "coordinates": [
          34.43399528567882,
          -40.6086369014283
        ]
      }
    },
    {
      "type": "Feature",
      "properties": {
        "norad_id": 31095,
        "name": "FENGYUN 1C DEB",
        "group": "fengyun-1c-debris",
        "lat": 0.6508684390026743,
        "lon": -44.51391553906434,
        "alt_km": 859.7257509262654,
        "timestamp": "2025-12-20T11:30:28.657546+00:00",
        "meta_object_name": "FENGYUN 1C DEB",
        "meta_object_id": "1999-025BGR",
        "meta_epoch": "2025-12-17T03:34:34.916736",
        "meta_mean_motion": 13.06670581,
        "meta_eccentricity": 0.05000721,
        "meta_inclination": 98.5625,
        "meta_ra_of_asc_node": 132.7204,
        "meta_arg_of_pericenter": 181.3173,
        "meta_mean_anomaly": 178.6655,
        "meta_ephemeris_type": 0,
        "meta_classification_type": "U",
        "meta_norad_cat_id": 31095,
        "meta_element_set_no": 999,
        "meta_rev_at_epoch": 89505,
        "meta_bstar": 0.0005656824,
        "meta_mean_motion_dot": 3.13e-06,
        "meta_mean_motion_ddot": 0,
        "tle_line1": "1 31095U 99025BGR 25351.14901524  .00000313  00000+0  56568-3 0  9994",
        "tle_line2": "2 31095  98.5625 132.7204 0500072 181.3173 178.6655 13.06670581895054"
      },
      "geometry": {
        "type": "Point",
        "coordinates": [
          -44.51391553906434,
          0.6508684390026743
        ]
      }
    },
    {
      "type": "Feature",
      "properties": {
        "norad_id": 31097,
        "name": "FENGYUN 1C DEB",
        "group": "fengyun-1c-debris",
        "lat": 73.3539955768111,
        "lon": 86.16773765494803,
        "alt_km": 738.9698375311227,
        "timestamp": "2025-12-20T11:30:28.657556+00:00",
        "meta_object_name": "FENGYUN 1C DEB",
        "meta_object_id": "1999-025BGT",
        "meta_epoch": "2025-12-19T14:11:53.199744",
        "meta_mean_motion": 14.47110216,
        "meta_eccentricity": 0.001556,
        "meta_inclination": 98.8599,
        "meta_ra_of_asc_node": 116.6851,
        "meta_arg_of_pericenter": 250.6565,
        "meta_mean_anomaly": 242.2356,
        "meta_ephemeris_type": 0,
        "meta_classification_type": "U",
        "meta_norad_cat_id": 31097,
        "meta_element_set_no": 999,
        "meta_rev_at_epoch": 97137,
        "meta_bstar": 0.0018291,
        "meta_mean_motion_dot": 6.635e-05,
        "meta_mean_motion_ddot": 0,
        "tle_line1": "1 31097U 99025BGT 25353.59158796  .00006635  00000+0  18291-2 0  9995",
        "tle_line2": "2 31097  98.8599 116.6851 0015560 250.6565 242.2356 14.47110216971372"
      },
      "geometry": {
        "type": "Point",
        "coordinates": [
          86.16773765494803,
          73.3539955768111
        ]
      }
    },
    {
      "type": "Feature",
      "properties": {
        "norad_id": 31098,
        "name": "FENGYUN 1C DEB",
        "group": "fengyun-1c-debris",
        "lat": 68.46667362483106,
        "lon": 89.5442390577422,
        "alt_km": 723.5245827271938,
        "timestamp": "2025-12-20T11:30:28.657566+00:00",
        "meta_object_name": "FENGYUN 1C DEB",
        "meta_object_id": "1999-025BGU",
        "meta_epoch": "2025-12-19T20:17:47.396544",
        "meta_mean_motion": 14.51677387,
        "meta_eccentricity": 0.00153207,
        "meta_inclination": 98.87,
        "meta_ra_of_asc_node": 112.1893,
        "meta_arg_of_pericenter": 230.0711,
        "meta_mean_anomaly": 129.9137,
        "meta_ephemeris_type": 0,
        "meta_classification_type": "U",
        "meta_norad_cat_id": 31098,
        "meta_element_set_no": 999,
        "meta_rev_at_epoch": 97060,
        "meta_bstar": 0.0020465716,
        "meta_mean_motion_dot": 8.182e-05,
        "meta_mean_motion_ddot": 0,
        "tle_line1": "1 31098U 99025BGU 25353.84568746  .00008182  00000+0  20466-2 0  9990",
        "tle_line2": "2 31098  98.8700 112.1893 0015320 230.0711 129.9137 14.51677387970608"
      },
      "geometry": {
        "type": "Point",
        "coordinates": [
          89.5442390577422,
          68.46667362483106
        ]
      }
    },
    {
      "type": "Feature",
      "properties": {
        "norad_id": 31099,
        "name": "FENGYUN 1C DEB",
        "group": "fengyun-1c-debris",
        "lat": -41.06623332293356,
        "lon": -104.97915087679364,
        "alt_km": 782.3105808775099,
        "timestamp": "2025-12-20T11:30:28.657578+00:00",
        "meta_object_name": "FENGYUN 1C DEB",
        "meta_object_id": "1999-025BGV",
        "meta_epoch": "2025-12-19T04:28:21.757152",
        "meta_mean_motion": 14.27931138,
        "meta_eccentricity": 0.00625457,
        "meta_inclination": 98.9378,
        "meta_ra_of_asc_node": 245.8168,
        "meta_arg_of_pericenter": 262.4442,
        "meta_mean_anomaly": 251.6638,
        "meta_ephemeris_type": 0,
        "meta_classification_type": "U",
        "meta_norad_cat_id": 31099,
        "meta_element_set_no": 999,
        "meta_rev_at_epoch": 97563,
        "meta_bstar": 0.00022712412,
        "meta_mean_motion_dot": 5.27e-06,
        "meta_mean_motion_ddot": 0,
        "tle_line1": "1 31099U 99025BGV 25353.18636293  .00000527  00000+0  22712-3 0  9993",
        "tle_line2": "2 31099  98.9378 245.8168 0062545 262.4442 251.6638 14.27931138975638"
      },
      "geometry": {
        "type": "Point",
        "coordinates": [
          -104.97915087679364,
          -41.06623332293356
        ]
      }
    },
    {
      "type": "Feature",
      "properties": {
        "norad_id": 31146,
        "name": "FENGYUN 1C DEB",
        "group": "fengyun-1c-debris",
        "lat": 7.187073667871095,
        "lon": 106.66983680876133,
        "alt_km": 665.5984339695542,
        "timestamp": "2025-12-20T11:30:28.657589+00:00",
        "meta_object_name": "FENGYUN 1C DEB",
        "meta_object_id": "1999-025BGY",
        "meta_epoch": "2025-12-20T02:18:14.868288",
        "meta_mean_motion": 14.27718327,
        "meta_eccentricity": 0.0212925,
        "meta_inclination": 99.0424,
        "meta_ra_of_asc_node": 285.1222,
        "meta_arg_of_pericenter": 145.7373,
        "meta_mean_anomaly": 215.7757,
        "meta_ephemeris_type": 0,
        "meta_classification_type": "U",
        "meta_norad_cat_id": 31146,
        "meta_element_set_no": 999,
        "meta_rev_at_epoch": 96870,
        "meta_bstar": 0.00022174,
        "meta_mean_motion_dot": 6.45e-06,
        "meta_mean_motion_ddot": 0,
        "tle_line1": "1 31146U 99025BGY 25354.09600542  .00000645  00000+0  22174-3 0  9998",
        "tle_line2": "2 31146  99.0424 285.1222 0212925 145.7373 215.7757 14.27718327968704"
      },
      "geometry": {
        "type": "Point",
        "coordinates": [
          106.66983680876133,
          7.187073667871095
        ]
      }
    },
    {
      "type": "Feature",
      "properties": {
        "norad_id": 31148,
        "name": "FENGYUN 1C DEB",
        "group": "fengyun-1c-debris",
        "lat": 55.602016437541806,
        "lon": -132.81412252883888,
        "alt_km": 656.4472670070109,
        "timestamp": "2025-12-20T11:30:28.657599+00:00",
        "meta_object_name": "FENGYUN 1C DEB",
        "meta_object_id": "1999-025BHA",
        "meta_epoch": "2025-12-19T10:17:53.585088",
        "meta_mean_motion": 14.43396116,
        "meta_eccentricity": 0.0136538,
        "meta_inclination": 98.8661,
        "meta_ra_of_asc_node": 239.2709,
        "meta_arg_of_pericenter": 30.9307,
        "meta_mean_anomaly": 329.9834,
        "meta_ephemeris_type": 0,
        "meta_classification_type": "U",
        "meta_norad_cat_id": 31148,
        "meta_element_set_no": 999,
        "meta_rev_at_epoch": 97627,
        "meta_bstar": 0.00061013,
        "meta_mean_motion_dot": 2.253e-05,
        "meta_mean_motion_ddot": 0,
        "tle_line1": "1 31148U 99025BHA 25353.42909242  .00002253  00000+0  61013-3 0  9997",
        "tle_line2": "2 31148  98.8661 239.2709 0136538  30.9307 329.9834 14.43396116976274"
      },
      "geometry": {
        "type": "Point",
        "coordinates": [
          -132.81412252883888,
          55.602016437541806
        ]
      }
    }
  ]
}